[{"OBJECT_NAME":"STARLINK-34713","OBJECT_ID":"2025-157C","EPOCH":"2026-03-09T22:45:09.998496","MEAN_MOTION":15.30221449,"ECCENTRICITY":0.00011203,"INCLINATION":53.159,"RA_OF_ASC_NODE":344.4511,"ARG_OF_PERICENTER":70.0579,"MEAN_ANOMALY":290.0543,"EPHEMERIS_TYPE":0,"CLASSIFICATION_TYPE":"U","NORAD_CAT_ID":64906,"ELEMENT_SET_NO":999,"REV_AT_EPOCH":3611,"BSTAR":0.0010070304,"MEAN_MOTION_DOT":0.00029605,"MEAN_MOTION_DDOT":0},{"OBJECT_NAME":"OBJECT BC","OBJECT_ID":"2025-313BC","EPOCH":"2026-03-09T04:33:08.504064","MEAN_MOTION":15.29126358,"ECCENTRICITY":0.00084789,"INCLINATION":97.3985,"RA_OF_ASC_NODE":144.811,"ARG_OF_PERICENTER":328.9209,"MEAN_ANOMALY":31.1528,"EPHEMERIS_TYPE":0,"CLASSIFICATION_TYPE":"U","NORAD_CAT_ID":67298,"ELEMENT_SET_NO":999,"REV_AT_EPOCH":789,"BSTAR":0.0026410397,"MEAN_MOTION_DOT":0.00075331,"MEAN_MOTION_DDOT":0}]
